{
  "type": "FeatureCollection",
  "features": [
    {
      "type": "Feature",
      "properties": {
        "norad_id": 55973,
        "name": "TIANMU-1 03",
        "group": "weather",
        "lat": -38.68921774941511,
        "lon": -45.49242159990965,
        "alt_km": 453.19865355193906,
        "timestamp": "2025-12-04T03:47:54.197750+00:00",
        "meta_object_name": "TIANMU-1 03",
        "meta_object_id": "2023-039A",
        "meta_epoch": "2025-12-03T20:36:55.264608",
        "meta_mean_motion": 15.40517344,
        "meta_eccentricity": 0.0004552,
        "meta_inclination": 97.5102,
        "meta_ra_of_asc_node": 140.265,
        "meta_arg_of_pericenter": 86.8573,
        "meta_mean_anomaly": 273.3194,
        "meta_ephemeris_type": 0,
        "meta_classification_type": "U",
        "meta_norad_cat_id": 55973,
        "meta_element_set_no": 999,
        "meta_rev_at_epoch": 15069,
        "meta_bstar": 0.00060002,
        "meta_mean_motion_dot": 0.00024318,
        "meta_mean_motion_ddot": 0,
        "tle_line1": "1 55973U 23039A   25337.85897297  .00024318  00000+0  60002-3 0  9999",
        "tle_line2": "2 55973  97.5102 140.2650 0004552  86.8573 273.3194 15.40517344150690"
      },
      "geometry": {
        "type": "Point",
        "coordinates": [
          -45.49242159990965,
          -38.68921774941511
        ]
      }
    },
    {
      "type": "Feature",
      "properties": {
        "norad_id": 55974,
        "name": "TIANMU-1 04",
        "group": "weather",
        "lat": -37.15463272875776,
        "lon": 145.4992529809868,
        "alt_km": 451.7749826137133,
        "timestamp": "2025-12-04T03:47:54.197762+00:00",
        "meta_object_name": "TIANMU-1 04",
        "meta_object_id": "2023-039B",
        "meta_epoch": "2025-12-03T20:10:04.974240",
        "meta_mean_motion": 15.40847299,
        "meta_eccentricity": 0.0005226,
        "meta_inclination": 97.5034,
        "meta_ra_of_asc_node": 139.4405,
        "meta_arg_of_pericenter": 83.1879,
        "meta_mean_anomaly": 276.9961,
        "meta_ephemeris_type": 0,
        "meta_classification_type": "U",
        "meta_norad_cat_id": 55974,
        "meta_element_set_no": 999,
        "meta_rev_at_epoch": 15069,
        "meta_bstar": 0.00058808,
        "meta_mean_motion_dot": 0.00024095,
        "meta_mean_motion_ddot": 0,
        "tle_line1": "1 55974U 23039B   25337.84033535  .00024095  00000+0  58808-3 0  9999",
        "tle_line2": "2 55974  97.5034 139.4405 0005226  83.1879 276.9961 15.40847299150697"
      },
      "geometry": {
        "type": "Point",
        "coordinates": [
          145.4992529809868,
          -37.15463272875776
        ]
      }
    },
    {
      "type": "Feature",
      "properties": {
        "norad_id": 55975,
        "name": "TIANMU-1 05",
        "group": "weather",
        "lat": 5.883193535329136,
        "lon": 139.48024057718538,
        "alt_km": 447.3036389964627,
        "timestamp": "2025-12-04T03:47:54.197772+00:00",
        "meta_object_name": "TIANMU-1 05",
        "meta_object_id": "2023-039C",
        "meta_epoch": "2025-12-03T19:58:40.331136",
        "meta_mean_motion": 15.40474723,
        "meta_eccentricity": 0.000433,
        "meta_inclination": 97.5079,
        "meta_ra_of_asc_node": 139.9244,
        "meta_arg_of_pericenter": 103.601,
        "meta_mean_anomaly": 256.5719,
        "meta_ephemeris_type": 0,
        "meta_classification_type": "U",
        "meta_norad_cat_id": 55975,
        "meta_element_set_no": 999,
        "meta_rev_at_epoch": 15067,
        "meta_bstar": 0.00058474,
        "meta_mean_motion_dot": 0.00023661,
        "meta_mean_motion_ddot": 0,
        "tle_line1": "1 55975U 23039C   25337.83241124  .00023661  00000+0  58474-3 0  9991",
        "tle_line2": "2 55975  97.5079 139.9244 0004330 103.6010 256.5719 15.40474723150674"
      },
      "geometry": {
        "type": "Point",
        "coordinates": [
          139.48024057718538,
          5.883193535329136
        ]
      }
    },
    {
      "type": "Feature",
      "properties": {
        "norad_id": 55976,
        "name": "TIANMU-1 06",
        "group": "weather",
        "lat": -50.55875620579008,
        "lon": 149.94433243527726,
        "alt_km": 453.1205339484359,
        "timestamp": "2025-12-04T03:47:54.197783+00:00",
        "meta_object_name": "TIANMU-1 06",
        "meta_object_id": "2023-039D",
        "meta_epoch": "2025-12-03T20:13:39.019872",
        "meta_mean_motion": 15.40899889,
        "meta_eccentricity": 0.0004675,
        "meta_inclination": 97.5092,
        "meta_ra_of_asc_node": 140.3928,
        "meta_arg_of_pericenter": 99.2148,
        "meta_mean_anomaly": 260.9627,
        "meta_ephemeris_type": 0,
        "meta_classification_type": "U",
        "meta_norad_cat_id": 55976,
        "meta_element_set_no": 999,
        "meta_rev_at_epoch": 15069,
        "meta_bstar": 0.00057665,
        "meta_mean_motion_dot": 0.00023663,
        "meta_mean_motion_ddot": 0,
        "tle_line1": "1 55976U 23039D   25337.84281273  .00023663  00000+0  57665-3 0  9995",
        "tle_line2": "2 55976  97.5092 140.3928 0004675  99.2148 260.9627 15.40899889150692"
      },
      "geometry": {
        "type": "Point",
        "coordinates": [
          149.94433243527726,
          -50.55875620579008
        ]
      }
    },
    {
      "type": "Feature",
      "properties": {
        "norad_id": 56232,
        "name": "FENGYUN 3G",
        "group": "weather",
        "lat": -38.696292673791945,
        "lon": -130.5687357405406,
        "alt_km": 418.33555371138755,
        "timestamp": "2025-12-04T03:47:54.197792+00:00",
        "meta_object_name": "FENGYUN 3G",
        "meta_object_id": "2023-055A",
        "meta_epoch": "2025-12-03T20:18:42.161184",
        "meta_mean_motion": 15.52818223,
        "meta_eccentricity": 0.0009235,
        "meta_inclination": 49.9946,
        "meta_ra_of_asc_node": 273.3209,
        "meta_arg_of_pericenter": 105.7273,
        "meta_mean_anomaly": 254.4713,
        "meta_ephemeris_type": 0,
        "meta_classification_type": "U",
        "meta_norad_cat_id": 56232,
        "meta_element_set_no": 999,
        "meta_rev_at_epoch": 14964,
        "meta_bstar": 0.00070797,
        "meta_mean_motion_dot": 0.00044606,
        "meta_mean_motion_ddot": 0,
        "tle_line1": "1 56232U 23055A   25337.84632131  .00044606  00000+0  70797-3 0  9993",
        "tle_line2": "2 56232  49.9946 273.3209 0009235 105.7273 254.4713 15.52818223149648"
      },
      "geometry": {
        "type": "Point",
        "coordinates": [
          -130.5687357405406,
          -38.696292673791945
        ]
      }
    },
    {
      "type": "Feature",
      "properties": {
        "norad_id": 57166,
        "name": "METEOR-M2 3",
        "group": "weather",
        "lat": -19.24553042752974,
        "lon": -151.19553313166327,
        "alt_km": 819.910835822453,
        "timestamp": "2025-12-04T03:47:54.197805+00:00",
        "meta_object_name": "METEOR-M2 3",
        "meta_object_id": "2023-091A",
        "meta_epoch": "2025-12-03T20:07:11.955648",
        "meta_mean_motion": 14.24024333,
        "meta_eccentricity": 0.0004385,
        "meta_inclination": 98.6391,
        "meta_ra_of_asc_node": 31.5327,
        "meta_arg_of_pericenter": 32.6913,
        "meta_mean_anomaly": 327.4537,
        "meta_ephemeris_type": 0,
        "meta_classification_type": "U",
        "meta_norad_cat_id": 57166,
        "meta_element_set_no": 999,
        "meta_rev_at_epoch": 12671,
        "meta_bstar": 4.2738e-05,
        "meta_mean_motion_dot": 5.5e-07,
        "meta_mean_motion_ddot": 0,
        "tle_line1": "1 57166U 23091A   25337.83833282  .00000055  00000+0  42738-4 0  9994",
        "tle_line2": "2 57166  98.6391  31.5327 0004385  32.6913 327.4537 14.24024333126712"
      },
      "geometry": {
        "type": "Point",
        "coordinates": [
          -151.19553313166327,
          -19.24553042752974
        ]
      }
    },
    {
      "type": "Feature",
      "properties": {
        "norad_id": 57399,
        "name": "TIANMU-1 07",
        "group": "weather",
        "lat": 59.59115163718364,
        "lon": 15.60131090472522,
        "alt_km": 473.6107762320589,
        "timestamp": "2025-12-04T03:47:54.197816+00:00",
        "meta_object_name": "TIANMU-1 07",
        "meta_object_id": "2023-101A",
        "meta_epoch": "2025-12-03T19:40:33.287808",
        "meta_mean_motion": 15.27864302,
        "meta_eccentricity": 0.0005596,
        "meta_inclination": 97.2894,
        "meta_ra_of_asc_node": 27.8679,
        "meta_arg_of_pericenter": 104.1759,
        "meta_mean_anomaly": 256.0103,
        "meta_ephemeris_type": 0,
        "meta_classification_type": "U",
        "meta_norad_cat_id": 57399,
        "meta_element_set_no": 999,
        "meta_rev_at_epoch": 13179,
        "meta_bstar": 0.00044905,
        "meta_mean_motion_dot": 0.00012156,
        "meta_mean_motion_ddot": 0,
        "tle_line1": "1 57399U 23101A   25337.81982972  .00012156  00000+0  44905-3 0  9995",
        "tle_line2": "2 57399  97.2894  27.8679 0005596 104.1759 256.0103 15.27864302131791"
      },
      "geometry": {
        "type": "Point",
        "coordinates": [
          15.60131090472522,
          59.59115163718364
        ]
      }
    }
  ]
}